[{"OBJECT_NAME":"STARLINK-5090","OBJECT_ID":"2023-046AX","EPOCH":"2026-03-09T22:00:01.999584","MEAN_MOTION":15.10022379,"ECCENTRICITY":0.00018333,"INCLINATION":42.9997,"RA_OF_ASC_NODE":144.2702,"ARG_OF_PERICENTER":258.3059,"MEAN_ANOMALY":26.3925,"EPHEMERIS_TYPE":0,"CLASSIFICATION_TYPE":"U","NORAD_CAT_ID":56137,"ELEMENT_SET_NO":999,"REV_AT_EPOCH":572,"BSTAR":0.00019724228,"MEAN_MOTION_DOT":3.045e-5,"MEAN_MOTION_DDOT":0},{"OBJECT_NAME":"JILIN-01 KUANFU 02B 3","OBJECT_ID":"2024-169C","EPOCH":"2026-03-09T22:06:48.862368","MEAN_MOTION":15.0924242,"ECCENTRICITY":0.00160506,"INCLINATION":97.5557,"RA_OF_ASC_NODE":159.7436,"ARG_OF_PERICENTER":304.8201,"MEAN_ANOMALY":55.1517,"EPHEMERIS_TYPE":0,"CLASSIFICATION_TYPE":"U","NORAD_CAT_ID":61191,"ELEMENT_SET_NO":999,"REV_AT_EPOCH":8085,"BSTAR":0.00039569069,"MEAN_MOTION_DOT":6.253e-5,"MEAN_MOTION_DDOT":0}]
